[
  {
    "COMMENT": "GENERATED VIA SPACETRACK.ORG API",
    "ORIGINATOR": "18 SPCS",
    "NORAD_CAT_ID": "43682",
    "OBJECT_NAME": "H-2A R/B",
    "OBJECT_TYPE": "ROCKET BODY",
    "CLASSIFICATION_TYPE": "U",
    "INTLDES": "18084L",
    "EPOCH": "2020-03-15 15:25:10",
    "EPOCH_MICROSECONDS": "161408",
    "MEAN_MOTION": "15.02790118",
    "ECCENTRICITY": "0.0058692",
    "INCLINATION": "98.904",
    "RA_OF_ASC_NODE": "268.8332",
    "ARG_OF_PERICENTER": "81.3044",
    "MEAN_ANOMALY": "279.4828",
    "EPHEMERIS_TYPE": "0",
    "ELEMENT_SET_NO": "999",
    "REV_AT_EPOCH": "7556",
    "BSTAR": "-0.000011124",
    "MEAN_MOTION_DOT": "-0.00000239",
    "MEAN_MOTION_DDOT": "0",
    "FILE": "2718956",
    "TLE_LINE0": "0 H-2A R/B",
    "TLE_LINE1": "1 43682U 18084L   20075.64247872 -.00000239  00000-0 -11124-4 0  9997",
    "TLE_LINE2": "2 43682  98.9040 268.8332 0058692  81.3044 279.4828 15.02790118 75564",
    "OBJECT_ID": "2018-084L",
    "OBJECT_NUMBER": "43682",
    "SEMIMAJOR_AXIS": "6936.434",
    "PERIOD": "95.822",
    "APOGEE": "599.011",
    "PERIGEE": "517.588",
    "DECAYED": "0"
  },
  {
    "COMMENT": "GENERATED VIA SPACETRACK.ORG API",
    "ORIGINATOR": "18 SPCS",
    "NORAD_CAT_ID": "43682",
    "OBJECT_NAME": "H-2A R/B",
    "OBJECT_TYPE": "ROCKET BODY",
    "CLASSIFICATION_TYPE": "U",
    "INTLDES": "18084L",
    "EPOCH": "2020-03-16 02:36:19",
    "EPOCH_MICROSECONDS": "572768",
    "MEAN_MOTION": "15.02789185",
    "ECCENTRICITY": "0.0058566",
    "INCLINATION": "98.9041",
    "RA_OF_ASC_NODE": "269.3683",
    "ARG_OF_PERICENTER": "79.8466",
    "MEAN_ANOMALY": "280.9322",
    "EPHEMERIS_TYPE": "0",
    "ELEMENT_SET_NO": "999",
    "REV_AT_EPOCH": "7563",
    "BSTAR": "-0.000019497",
    "MEAN_MOTION_DOT": "-0.00000355",
    "MEAN_MOTION_DDOT": "0",
    "FILE": "2719437",
    "TLE_LINE0": "0 H-2A R/B",
    "TLE_LINE1": "1 43682U 18084L   20076.10855987 -.00000355 +00000-0 -19497-4 0  9991",
    "TLE_LINE2": "2 43682 098.9041 269.3683 0058566 079.8466 280.9322 15.02789185075636",
    "OBJECT_ID": "2018-084L",
    "OBJECT_NUMBER": "43682",
    "SEMIMAJOR_AXIS": "6936.437",
    "PERIOD": "95.822",
    "APOGEE": "598.926",
    "PERIGEE": "517.678",
    "DECAYED": "0"
  },
  {
    "COMMENT": "GENERATED VIA SPACETRACK.ORG API",
    "ORIGINATOR": "18 SPCS",
    "NORAD_CAT_ID": "43682",
    "OBJECT_NAME": "H-2A R/B",
    "OBJECT_TYPE": "ROCKET BODY",
    "CLASSIFICATION_TYPE": "U",
    "INTLDES": "18084L",
    "EPOCH": "2020-03-16 23:22:45",
    "EPOCH_MICROSECONDS": "717600",
    "MEAN_MOTION": "15.02788814",
    "ECCENTRICITY": "0.0058577",
    "INCLINATION": "98.9042",
    "RA_OF_ASC_NODE": "270.3625",
    "ARG_OF_PERICENTER": "77.067",
    "MEAN_ANOMALY": "283.7084",
    "EPHEMERIS_TYPE": "0",
    "ELEMENT_SET_NO": "999",
    "REV_AT_EPOCH": "7576",
    "BSTAR": "-0.000018102",
    "MEAN_MOTION_DOT": "-0.00000336",
    "MEAN_MOTION_DDOT": "0",
    "FILE": "2719605",
    "TLE_LINE0": "0 H-2A R/B",
    "TLE_LINE1": "1 43682U 18084L   20076.97414025 -.00000336 +00000-0 -18102-4 0  9991",
    "TLE_LINE2": "2 43682 098.9042 270.3625 0058577 077.0670 283.7084 15.02788814075762",
    "OBJECT_ID": "2018-084L",
    "OBJECT_NUMBER": "43682",
    "SEMIMAJOR_AXIS": "6936.438",
    "PERIOD": "95.822",
    "APOGEE": "598.935",
    "PERIGEE": "517.672",
    "DECAYED": "0"
  },
  {
    "COMMENT": "GENERATED VIA SPACETRACK.ORG API",
    "ORIGINATOR": "18 SPCS",
    "NORAD_CAT_ID": "43682",
    "OBJECT_NAME": "H-2A R/B",
    "OBJECT_TYPE": "ROCKET BODY",
    "CLASSIFICATION_TYPE": "U",
    "INTLDES": "18084L",
    "EPOCH": "2020-03-17 13:45:40",
    "EPOCH_MICROSECONDS": "749120",
    "MEAN_MOTION": "15.02788141",
    "ECCENTRICITY": "0.0058461",
    "INCLINATION": "98.9042",
    "RA_OF_ASC_NODE": "271.051",
    "ARG_OF_PERICENTER": "75.0142",
    "MEAN_ANOMALY": "285.7543",
    "EPHEMERIS_TYPE": "0",
    "ELEMENT_SET_NO": "999",
    "REV_AT_EPOCH": "7585",
    "BSTAR": "-0.000020737",
    "MEAN_MOTION_DOT": "-0.00000372",
    "MEAN_MOTION_DDOT": "0",
    "FILE": "2719766",
    "TLE_LINE0": "0 H-2A R/B",
    "TLE_LINE1": "1 43682U 18084L   20077.57338830 -.00000372 +00000-0 -20737-4 0  9994",
    "TLE_LINE2": "2 43682 098.9042 271.0510 0058461 075.0142 285.7543 15.02788141075852",
    "OBJECT_ID": "2018-084L",
    "OBJECT_NUMBER": "43682",
    "SEMIMAJOR_AXIS": "6936.441",
    "PERIOD": "95.822",
    "APOGEE": "598.857",
    "PERIGEE": "517.754",
    "DECAYED": "0"
  },
  {
    "COMMENT": "GENERATED VIA SPACETRACK.ORG API",
    "ORIGINATOR": "18 SPCS",
    "NORAD_CAT_ID": "43682",
    "OBJECT_NAME": "H-2A R/B",
    "OBJECT_TYPE": "ROCKET BODY",
    "CLASSIFICATION_TYPE": "U",
    "INTLDES": "18084L",
    "EPOCH": "2020-03-17 15:21:33",
    "EPOCH_MICROSECONDS": "523776",
    "MEAN_MOTION": "15.02788112",
    "ECCENTRICITY": "0.0058462",
    "INCLINATION": "98.9042",
    "RA_OF_ASC_NODE": "271.1274",
    "ARG_OF_PERICENTER": "74.7892",
    "MEAN_ANOMALY": "285.9784",
    "EPHEMERIS_TYPE": "0",
    "ELEMENT_SET_NO": "999",
    "REV_AT_EPOCH": "7586",
    "BSTAR": "-0.000020673",
    "MEAN_MOTION_DOT": "-0.00000371",
    "MEAN_MOTION_DDOT": "0",
    "FILE": "2719933",
    "TLE_LINE0": "0 H-2A R/B",
    "TLE_LINE1": "1 43682U 18084L   20077.63997134 -.00000371 +00000-0 -20673-4 0  9997",
    "TLE_LINE2": "2 43682 098.9042 271.1274 0058462 074.7892 285.9784 15.02788112075867",
    "OBJECT_ID": "2018-084L",
    "OBJECT_NUMBER": "43682",
    "SEMIMAJOR_AXIS": "6936.441",
    "PERIOD": "95.822",
    "APOGEE": "598.857",
    "PERIGEE": "517.754",
    "DECAYED": "0"
  },
  {
    "COMMENT": "GENERATED VIA SPACETRACK.ORG API",
    "ORIGINATOR": "18 SPCS",
    "NORAD_CAT_ID": "43682",
    "OBJECT_NAME": "H-2A R/B",
    "OBJECT_TYPE": "ROCKET BODY",
    "CLASSIFICATION_TYPE": "U",
    "INTLDES": "18084L",
    "EPOCH": "2020-03-18 04:08:35",
    "EPOCH_MICROSECONDS": "811744",
    "MEAN_MOTION": "15.02787111",
    "ECCENTRICITY": "0.0058342",
    "INCLINATION": "98.9041",
    "RA_OF_ASC_NODE": "271.7385",
    "ARG_OF_PERICENTER": "73.047",
    "MEAN_ANOMALY": "287.7133",
    "EPHEMERIS_TYPE": "0",
    "ELEMENT_SET_NO": "999",
    "REV_AT_EPOCH": "7594",
    "BSTAR": "-0.000028411",
    "MEAN_MOTION_DOT": "-0.00000479",
    "MEAN_MOTION_DDOT": "0",
    "FILE": "2720181",
    "TLE_LINE0": "0 H-2A R/B",
    "TLE_LINE1": "1 43682U 18084L   20078.17263671 -.00000479 +00000-0 -28411-4 0  9996",
    "TLE_LINE2": "2 43682 098.9041 271.7385 0058342 073.0470 287.7133 15.02787111075941",
    "OBJECT_ID": "2018-084L",
    "OBJECT_NUMBER": "43682",
    "SEMIMAJOR_AXIS": "6936.444",
    "PERIOD": "95.822",
    "APOGEE": "598.777",
    "PERIGEE": "517.840",
    "DECAYED": "0"
  },
  {
    "COMMENT": "GENERATED VIA SPACETRACK.ORG API",
    "ORIGINATOR": "18 SPCS",
    "NORAD_CAT_ID": "43682",
    "OBJECT_NAME": "H-2A R/B",
    "OBJECT_TYPE": "ROCKET BODY",
    "CLASSIFICATION_TYPE": "U",
    "INTLDES": "18084L",
    "EPOCH": "2020-03-18 12:07:59",
    "EPOCH_MICROSECONDS": "710944",
    "MEAN_MOTION": "15.02787197",
    "ECCENTRICITY": "0.0058332",
    "INCLINATION": "98.904",
    "RA_OF_ASC_NODE": "272.121",
    "ARG_OF_PERICENTER": "71.9268",
    "MEAN_ANOMALY": "288.8313",
    "EPHEMERIS_TYPE": "0",
    "ELEMENT_SET_NO": "999",
    "REV_AT_EPOCH": "7599",
    "BSTAR": "-0.000024307",
    "MEAN_MOTION_DOT": "-0.00000422",
    "MEAN_MOTION_DDOT": "0",
    "FILE": "2720140",
    "TLE_LINE0": "0 H-2A R/B",
    "TLE_LINE1": "1 43682U 18084L   20078.50555221 -.00000422  00000-0 -24307-4 0  9996",
    "TLE_LINE2": "2 43682  98.9040 272.1210 0058332  71.9268 288.8313 15.02787197 75994",
    "OBJECT_ID": "2018-084L",
    "OBJECT_NUMBER": "43682",
    "SEMIMAJOR_AXIS": "6936.443",
    "PERIOD": "95.822",
    "APOGEE": "598.770",
    "PERIGEE": "517.847",
    "DECAYED": "0"
  },
  {
    "COMMENT": "GENERATED VIA SPACETRACK.ORG API",
    "ORIGINATOR": "18 SPCS",
    "NORAD_CAT_ID": "43682",
    "OBJECT_NAME": "H-2A R/B",
    "OBJECT_TYPE": "ROCKET BODY",
    "CLASSIFICATION_TYPE": "U",
    "INTLDES": "18084L",
    "EPOCH": "2020-03-18 23:19:09",
    "EPOCH_MICROSECONDS": "160320",
    "MEAN_MOTION": "15.02786786",
    "ECCENTRICITY": "0.005835",
    "INCLINATION": "98.9041",
    "RA_OF_ASC_NODE": "272.6564",
    "ARG_OF_PERICENTER": "70.3691",
    "MEAN_ANOMALY": "290.3814",
    "EPHEMERIS_TYPE": "0",
    "ELEMENT_SET_NO": "999",
    "REV_AT_EPOCH": "7606",
    "BSTAR": "-0.000025078",
    "MEAN_MOTION_DOT": "-0.00000433",
    "MEAN_MOTION_DDOT": "0",
    "FILE": "2720431",
    "TLE_LINE0": "0 H-2A R/B",
    "TLE_LINE1": "1 43682U 18084L   20078.97163380 -.00000433 +00000-0 -25078-4 0  9996",
    "TLE_LINE2": "2 43682 098.9041 272.6564 0058350 070.3691 290.3814 15.02786786076061",
    "OBJECT_ID": "2018-084L",
    "OBJECT_NUMBER": "43682",
    "SEMIMAJOR_AXIS": "6936.445",
    "PERIOD": "95.822",
    "APOGEE": "598.784",
    "PERIGEE": "517.836",
    "DECAYED": "0"
  }
]